KINEIS-5E               
1 62083U 24219C   26073.57568860  .00001412  00000+0  23088-3 0  9991
2 62083  97.9498 235.0934 0004144 131.6435 228.5129 14.72356080 69841
KINEIS-5A               
1 62084U 24219D   26073.60832450  .00001025  00000+0  17038-3 0  9993
2 62084  97.9691 235.2446 0002988 180.6105 179.5099 14.72200590 69855
KINEIS-5B               
1 62085U 24219E   26073.62024388  .00001990  00000+0  28240-3 0  9997
2 62085  97.9950 238.0676 0001817 176.7688 183.3534 14.78094090 70033
KINEIS-2C               
1 62929U 25028B   26073.62035430  .00001547  00000+0  25246-3 0  9994
2 62929  98.0265 128.7256 0000631  28.3144 331.8097 14.72333242 58693
KINEIS-2D               
1 62930U 25028C   26073.38476558  .00002001  00000+0  30227-3 0  9990
2 62930  97.9405 127.6294 0004371 135.1638 224.9925 14.75363778 58736
KINEIS-2E               
1 62931U 25028D   26073.37273381  .00001658  00000+0  24394-3 0  9994
2 62931  97.9072 126.9939 0002007 106.4995 253.6436 14.76732730 58786
KINEIS-2A               
1 62932U 25028E   26073.58155348  .00001514  00000+0  24853-3 0  9991
2 62932  98.0812 129.0578 0002756 184.5263 175.5920 14.72115688 58682
KINEIS-2B               
1 62934U 25028G   26073.39503326  .00001489  00000+0  23880-3 0  9995
2 62934  97.9784 127.9451 0004963  97.9707 262.2065 14.73130849 58703
KINEIS-4E               
1 63300U 25056A   26072.28835479  .00000951  00000+0  15833-3 0  9990
2 63300  97.9879 198.5336 0000922 169.2110 190.9117 14.72266799 53011
KINEIS-4C               
1 63301U 25056B   26073.59213701  .00002695  00000+0  43415-3 0  9998
2 63301  97.9936 199.9827 0000412 132.1949 227.9294 14.72307678 53210
KINEIS-4D               
1 63302U 25056C   26073.59710235  .00002724  00000+0  43844-3 0  9992
2 63302  97.9923 199.9643 0000660 227.5841 132.5311 14.72324257 53211
KINEIS-4A               
1 63303U 25056D   26073.56222009  .00002806  00000+0  45112-3 0  9998
2 63303  97.9942 199.8586 0002049 214.5023 145.6052 14.72350565 53206
KINEIS-4B               
1 63304U 25056E   26073.61334068  .00002565  00000+0  41324-3 0  9997
2 63304  97.9939 199.9542 0002838 175.1466 184.9770 14.72336857 53206
