[{"OBJECT_NAME":"KINEIS-5E","OBJECT_ID":"2024-219C","EPOCH":"2026-03-14T13:48:59.495040","MEAN_MOTION":14.7235608,"ECCENTRICITY":0.0004144,"INCLINATION":97.9498,"RA_OF_ASC_NODE":235.0934,"ARG_OF_PERICENTER":131.6435,"MEAN_ANOMALY":228.5129,"EPHEMERIS_TYPE":0,"CLASSIFICATION_TYPE":"U","NORAD_CAT_ID":62083,"ELEMENT_SET_NO":999,"REV_AT_EPOCH":6984,"BSTAR":0.00023087867,"MEAN_MOTION_DOT":1.412e-5,"MEAN_MOTION_DDOT":0},{"OBJECT_NAME":"KINEIS-5A","OBJECT_ID":"2024-219D","EPOCH":"2026-03-14T14:35:59.236800","MEAN_MOTION":14.7220059,"ECCENTRICITY":0.00029886,"INCLINATION":97.9691,"RA_OF_ASC_NODE":235.2446,"ARG_OF_PERICENTER":180.6105,"MEAN_ANOMALY":179.5099,"EPHEMERIS_TYPE":0,"CLASSIFICATION_TYPE":"U","NORAD_CAT_ID":62084,"ELEMENT_SET_NO":999,"REV_AT_EPOCH":6985,"BSTAR":0.00017037651,"MEAN_MOTION_DOT":1.025e-5,"MEAN_MOTION_DDOT":0},{"OBJECT_NAME":"KINEIS-5B","OBJECT_ID":"2024-219E","EPOCH":"2026-03-14T14:53:09.071232","MEAN_MOTION":14.7809409,"ECCENTRICITY":0.0001817,"INCLINATION":97.995,"RA_OF_ASC_NODE":238.0676,"ARG_OF_PERICENTER":176.7688,"MEAN_ANOMALY":183.3534,"EPHEMERIS_TYPE":0,"CLASSIFICATION_TYPE":"U","NORAD_CAT_ID":62085,"ELEMENT_SET_NO":999,"REV_AT_EPOCH":7003,"BSTAR":0.00028239526,"MEAN_MOTION_DOT":1.99e-5,"MEAN_MOTION_DDOT":0},{"OBJECT_NAME":"KINEIS-2C","OBJECT_ID":"2025-028B","EPOCH":"2026-03-14T14:53:18.611520","MEAN_MOTION":14.72333242,"ECCENTRICITY":6.317e-5,"INCLINATION":98.0265,"RA_OF_ASC_NODE":128.7256,"ARG_OF_PERICENTER":28.3144,"MEAN_ANOMALY":331.8097,"EPHEMERIS_TYPE":0,"CLASSIFICATION_TYPE":"U","NORAD_CAT_ID":62929,"ELEMENT_SET_NO":999,"REV_AT_EPOCH":5869,"BSTAR":0.00025246285,"MEAN_MOTION_DOT":1.547e-5,"MEAN_MOTION_DDOT":0},{"OBJECT_NAME":"KINEIS-2D","OBJECT_ID":"2025-028C","EPOCH":"2026-03-14T09:14:03.746112","MEAN_MOTION":14.75363778,"ECCENTRICITY":0.0004371,"INCLINATION":97.9405,"RA_OF_ASC_NODE":127.6294,"ARG_OF_PERICENTER":135.1638,"MEAN_ANOMALY":224.9925,"EPHEMERIS_TYPE":0,"CLASSIFICATION_TYPE":"U","NORAD_CAT_ID":62930,"ELEMENT_SET_NO":999,"REV_AT_EPOCH":5873,"BSTAR":0.00030226645,"MEAN_MOTION_DOT":2.001e-5,"MEAN_MOTION_DDOT":0},{"OBJECT_NAME":"KINEIS-2E","OBJECT_ID":"2025-028D","EPOCH":"2026-03-14T08:56:44.201184","MEAN_MOTION":14.7673273,"ECCENTRICITY":0.00020074,"INCLINATION":97.9072,"RA_OF_ASC_NODE":126.9939,"ARG_OF_PERICENTER":106.4995,"MEAN_ANOMALY":253.6436,"EPHEMERIS_TYPE":0,"CLASSIFICATION_TYPE":"U","NORAD_CAT_ID":62931,"ELEMENT_SET_NO":999,"REV_AT_EPOCH":5878,"BSTAR":0.00024393571,"MEAN_MOTION_DOT":1.658e-5,"MEAN_MOTION_DDOT":0},{"OBJECT_NAME":"KINEIS-2A","OBJECT_ID":"2025-028E","EPOCH":"2026-03-14T13:57:26.220672","MEAN_MOTION":14.72115688,"ECCENTRICITY":0.00027569,"INCLINATION":98.0812,"RA_OF_ASC_NODE":129.0578,"ARG_OF_PERICENTER":184.5263,"MEAN_ANOMALY":175.592,"EPHEMERIS_TYPE":0,"CLASSIFICATION_TYPE":"U","NORAD_CAT_ID":62932,"ELEMENT_SET_NO":999,"REV_AT_EPOCH":5868,"BSTAR":0.00024853403,"MEAN_MOTION_DOT":1.514e-5,"MEAN_MOTION_DDOT":0},{"OBJECT_NAME":"KINEIS-2B","OBJECT_ID":"2025-028G","EPOCH":"2026-03-14T09:28:50.873664","MEAN_MOTION":14.73130849,"ECCENTRICITY":0.00049633,"INCLINATION":97.9784,"RA_OF_ASC_NODE":127.9451,"ARG_OF_PERICENTER":97.9707,"MEAN_ANOMALY":262.2065,"EPHEMERIS_TYPE":0,"CLASSIFICATION_TYPE":"U","NORAD_CAT_ID":62934,"ELEMENT_SET_NO":999,"REV_AT_EPOCH":5870,"BSTAR":0.00023880221,"MEAN_MOTION_DOT":1.489e-5,"MEAN_MOTION_DDOT":0},{"OBJECT_NAME":"KINEIS-4E","OBJECT_ID":"2025-056A","EPOCH":"2026-03-13T06:55:13.853856","MEAN_MOTION":14.72266799,"ECCENTRICITY":9.221e-5,"INCLINATION":97.9879,"RA_OF_ASC_NODE":198.5336,"ARG_OF_PERICENTER":169.211,"MEAN_ANOMALY":190.9117,"EPHEMERIS_TYPE":0,"CLASSIFICATION_TYPE":"U","NORAD_CAT_ID":63300,"ELEMENT_SET_NO":999,"REV_AT_EPOCH":5301,"BSTAR":0.00015832817,"MEAN_MOTION_DOT":9.51e-6,"MEAN_MOTION_DDOT":0},{"OBJECT_NAME":"KINEIS-4C","OBJECT_ID":"2025-056B","EPOCH":"2026-03-14T14:12:40.637664","MEAN_MOTION":14.72307678,"ECCENTRICITY":4.123e-5,"INCLINATION":97.9936,"RA_OF_ASC_NODE":199.9827,"ARG_OF_PERICENTER":132.1949,"MEAN_ANOMALY":227.9294,"EPHEMERIS_TYPE":0,"CLASSIFICATION_TYPE":"U","NORAD_CAT_ID":63301,"ELEMENT_SET_NO":999,"REV_AT_EPOCH":5321,"BSTAR":0.00043414797,"MEAN_MOTION_DOT":2.695e-5,"MEAN_MOTION_DDOT":0},{"OBJECT_NAME":"KINEIS-4D","OBJECT_ID":"2025-056C","EPOCH":"2026-03-14T14:19:49.643040","MEAN_MOTION":14.72324257,"ECCENTRICITY":6.6e-5,"INCLINATION":97.9923,"RA_OF_ASC_NODE":199.9643,"ARG_OF_PERICENTER":227.5841,"MEAN_ANOMALY":132.5311,"EPHEMERIS_TYPE":0,"CLASSIFICATION_TYPE":"U","NORAD_CAT_ID":63302,"ELEMENT_SET_NO":999,"REV_AT_EPOCH":5321,"BSTAR":0.00043843514,"MEAN_MOTION_DOT":2.724e-5,"MEAN_MOTION_DDOT":0},{"OBJECT_NAME":"KINEIS-4A","OBJECT_ID":"2025-056D","EPOCH":"2026-03-14T13:29:35.815776","MEAN_MOTION":14.72350565,"ECCENTRICITY":0.0002049,"INCLINATION":97.9942,"RA_OF_ASC_NODE":199.8586,"ARG_OF_PERICENTER":214.5023,"MEAN_ANOMALY":145.6052,"EPHEMERIS_TYPE":0,"CLASSIFICATION_TYPE":"U","NORAD_CAT_ID":63303,"ELEMENT_SET_NO":999,"REV_AT_EPOCH":5320,"BSTAR":0.00045112201,"MEAN_MOTION_DOT":2.806e-5,"MEAN_MOTION_DDOT":0},{"OBJECT_NAME":"KINEIS-4B","OBJECT_ID":"2025-056E","EPOCH":"2026-03-14T14:43:12.634752","MEAN_MOTION":14.72336857,"ECCENTRICITY":0.00028385,"INCLINATION":97.9939,"RA_OF_ASC_NODE":199.9542,"ARG_OF_PERICENTER":175.1466,"MEAN_ANOMALY":184.977,"EPHEMERIS_TYPE":0,"CLASSIFICATION_TYPE":"U","NORAD_CAT_ID":63304,"ELEMENT_SET_NO":999,"REV_AT_EPOCH":5320,"BSTAR":0.00041324025,"MEAN_MOTION_DOT":2.565e-5,"MEAN_MOTION_DDOT":0}]
